1 31214U 99025BKU 08064.93584286 +.00000878 +00000-0 +56836-3 0 01445
2 31214 098.8438 048.2467 0029380 061.3370 299.0563 14.05156847048238
1 31215U 99025BKV 08064.20999529 +.00000352 +00000-0 +20306-3 0 01042
2 31215 099.1541 068.3913 0072558 153.6491 206.8410 14.14307248048488
1 31215U 99025BKV 08065.76639769  .00000358  00000-0  20604-3 0  1037
2 31215 099.1549 069.9880 0072988 149.1232 211.4306 14.14308671 48708
1 31216U 99025BKW 08064.64861590 +.00176054 +00000-0 +17766-1 0 03811
2 31216 099.9439 108.1091 0203974 356.8728 003.1282 14.76077578052940
1 31216U 99025BKW 08065.05530026  .00180361  00000-0  18223-1 0  3808
2 31216 099.9457 108.6099 0202193 354.9320 005.0647 14.76236024 53009
1 31216U 99025BKW 08065.66524441  .00164625  00000-0  16555-1 0  3811
2 31216 099.9462 109.3603 0202686 352.8502 006.9813 14.76416946 53097
1 31217U 99025BKX 08064.92781473 +.00000215 +00000-0 +14526-3 0 01067
2 31217 098.9643 055.2141 0112902 136.7877 224.2219 14.07272787049535
1 31220U 99025BLA 08063.97607839 +.00000773 +00000-0 +35065-3 0 01091
2 31220 099.0790 071.0907 0074878 171.7508 188.5147 14.23418179048940
1 31220U 99025BLA 08064.96017966  .00000811  00000-0  36707-3 0  1083
2 31220 099.0786 072.1054 0075136 168.9519 191.3493 14.23420763 49082
1 31221U 99025BLB 08064.92845760  .00023312  00000-0  13179-1 0  4306
2 31221 099.1994 049.7885 0320916 152.1270 209.7265 13.87241904 52076
1 31221U 99025BLB 08064.92845760 +.00023312 +00000-0 +13179-1 0 04317
2 31221 099.1994 049.7885 0320916 152.1270 209.7265 13.87241904052076
1 31222U 99025BLC 08064.48190994 +.00000294 +00000-0 +47546-4 0 01129
2 31222 098.7426 075.9991 0316808 086.9583 276.7854 14.51079887049825
1 31223U 99025BLD 08064.83160228 +.00000006 +00000-0 +54891-4 0 01780
2 31223 099.0414 019.8308 0307055 184.4094 175.4484 13.46251516046545
1 31223U 99025BLD 08064.83160228  .00000006  00000-0  54891-4 0  1779
2 31223 099.0414 019.8308 0307055 184.4094 175.4484 13.46251516 46545
1 31225U 99025BLF 08064.54016911 +.00000716 +00000-0 +51816-3 0 02400
2 31225 098.9470 046.9093 0108268 022.7999 337.7910 13.96944700047213
1 31225U 99025BLF 08065.47127104  .00000720  00000-0  52093-3 0  2403
2 31225 098.9479 047.8239 0108485 020.2227 340.3174 13.96946096 47348
1 31228U 99025BLJ 08064.49884695 +.00000160 +00000-0 +83479-4 0 01266
2 31228 099.0539 072.4753 0090949 239.3613 119.8567 14.25967903048037
1 31229U 99025BLK 08065.37893087  .00000912  00000-0  62310-3 0  1287
2 31229 098.9564 050.0834 0074580 116.1972 244.6904 14.00949697 47314
1 31232U 99025BLN 08064.14938040 +.00001203 +00000-0 +81245-3 0 01275
2 31232 098.9095 047.9694 0053545 095.9870 264.7384 14.01622083047891
1 31232U 99025BLN 08065.14877319  .00001178  00000-0  79703-3 0  1274
2 31232 098.9062 048.9356 0050740 094.3162 266.4229 14.01624844 48033
1 31236U 99025BLS 08064.57494396 -.00000259  00000-0 -20678-3 0   406
2 31236 098.5573 001.5443 0417268 196.7569 162.0226 13.49469474 51165
1 31236U 99025BLS 08065.61296879 -.00000259  00000-0 -20678-3 0   419
2 31236 098.5573 002.4387 0417269 194.0824 164.8385 13.49469010 51306
1 31238U 99025BLU 08064.45392036 +.00001028 +00000-0 +53410-3 0 01362
2 31238 099.0382 061.3148 0149801 320.7274 038.3170 14.11406961048312
1 31239U 99025BLV 08064.93595990 +.00000120 +00000-0 +10211-3 0 01421
2 31239 099.0526 057.2674 0054129 005.4327 354.7342 14.04321484048140
1 31240U 99025BLW 08052.20832965 -.00000155  00000-0 -67033-4 0   767
2 31240 099.0555 043.8849 0134525 178.9408 182.5086 14.02240425 46271
1 31242U 99025BLY 08057.59639793  .00001272  00000-0  45930-3 0   591
2 31242 097.4606 354.6297 0106123 132.3478 216.8725 14.31780606 53345
1 31247U 99025BMD 08064.48560694 +.00000407 +00000-0 +32803-3 0 01567
2 31247 099.4874 070.0401 0079260 119.9585 240.9456 13.95091731047903
1 31247U 99025BMD 08065.20279411  .00000389  00000-0  31479-3 0  1536
2 31247 099.4874 070.7776 0079379 118.0717 242.8425 13.95091947 48001
1 31250U 99025BMG 08064.85560241 +.00000431 +00000-0 +34860-3 0 01506
2 31250 098.4366 020.2850 0148792 021.5784 339.1562 13.89851320050491
1 31250U 99025BMG 08065.35952386  .00000432  00000-0  34993-3 0  1482
2 31250 098.4363 020.7422 0148821 020.1708 340.5257 13.89851844 50568
1 31252U 99025BMJ 08064.78629207 +.00000123 +00000-0 +52022-4 0 01002
2 31252 098.5906 051.9144 0247236 250.6265 106.8048 14.27390667048730
1 31252U 99025BMJ 08065.20688298  .00000123  00000-0  52185-4 0   981
2 31252 098.5906 052.3283 0247268 249.4005 108.0504 14.27390837 48798
1 31254U 99025BML 08064.37947855 +.00000145 +00000-0 +69195-4 0 01116
2 31254 098.5238 046.1013 0176457 118.5735 243.3340 14.24466966048477
1 31258U 99025BMQ 08064.87278202 +.00000790 +00000-0 +50357-3 0 01528
2 31258 098.8211 047.9724 0029385 082.9494 277.5118 14.06293312047492
1 31258U 99025BMQ 08064.87278202  .00000790  00000-0  50357-3 0  1483
2 31258 098.8211 047.9724 0029385 082.9494 277.5118 14.06293312 47492
1 31259U 99025BMR 08064.45813367 +.00000539 +00000-0 +43663-3 0 02186
2 31259 099.0613 049.0837 0085642 090.4312 270.6673 13.92682309046728
1 31259U 99025BMR 08064.88919087  .00000537  00000-0  43561-3 0  2173
2 31259 099.0613 049.5059 0085578 089.2490 271.8490 13.92682808 46780
1 31261U 99025BMT 08064.99103010  .00000266  00000-0  14045-3 0  1138
2 31261 099.1374 073.5554 0064940 252.6912 106.7152 14.21467308 47668
1 31262U 99025BMU 08064.46234235 +.00000496 +00000-0 +39054-3 0 01362
2 31262 098.9960 047.8122 0075288 074.7486 286.1995 13.95063231046707
1 31263U 99025BMV 08064.94808308 +.00000967 +00000-0 +60215-3 0 01203
2 31263 099.0972 060.7722 0056443 126.8615 233.7792 14.06572044047230
1 31264U 99025BMW 08064.49502857  .00000175  00000-0  12479-3 0  1215
2 31264 099.2778 071.7364 0000737 007.6001 352.5180 14.10621226 47335
1 31264U 99025BMW 08064.49502857 +.00000175 +00000-0 +12479-3 0 01248
2 31264 099.2778 071.7364 0000737 007.6001 352.5180 14.10621226047335
1 31266U 99025BMY 08064.49398685 +.00000074 +00000-0 +56286-4 0 01111
2 31266 099.2936 076.9773 0140877 308.1329 050.7229 14.16343766051710
1 31268U 99025BNA 08065.23229986  .00000333  00000-0  26686-3 0   457
2 31268 099.3253 064.9378 0063972 098.0740 265.9146 13.96929775 51103
1 31271U 99025BND 08064.66312721  .00002721  00000-0  16395-3 0  1637
2 31271 099.1570 114.9559 0335665 136.7427 226.0646 14.75184024 53155
1 31271U 99025BND 08064.66312721 +.00002721 +00000-0 +16395-3 0 01659
2 31271 099.1570 114.9559 0335665 136.7427 226.0646 14.75184024053155
1 31273U 99025BNF 08064.35118264 +.00000992 +00000-0 +47755-3 0 01150
2 31273 098.3768 035.8531 0086657 126.9591 233.9560 14.18871113051244
1 31274U 99025BNG 08064.39617299 +.00000563 +00000-0 +50680-3 0 01185
2 31274 099.0928 036.8280 0275389 078.0818 285.1071 13.71942784049563
1 31275U 99025BNH 08064.40955279 +.00000384 +00000-0 +32439-3 0 01320
2 31275 099.1094 049.7349 0116176 057.1065 304.1254 13.90587878049923
1 31275U 99025BNH 08065.20100703  .00000386  00000-0  32580-3 0  1311
2 31275 099.1095 050.5108 0116180 054.9392 306.2611 13.90588609 50037
1 31283U 99025BNR 08065.53107571  .00007929  00000-0  67573-3 0  1383
2 31283 099.5404 099.5126 0526131 294.3741 060.5880 14.28685709 51216
1 31285U 99025BNT 08065.45816462  .00000057  00000-0  40136-4 0   923
2 31285 098.9166 063.3085 0212946 280.5201 077.2006 14.20500417 51043
1 31287U 99025BNV 08057.96572061  .00000421  00000-0  30124-3 0   443
2 31287 099.4797 068.4874 0039972 109.9157 250.6523 14.02724197 51047
1 31289U 99025BNX 08064.15446564 +.00000978 +00000-0 +69316-4 0 01031
2 31289 097.6421 028.1044 0382848 125.5300 238.2291 14.62786904055602
1 31289U 99025BNX 08065.72779512  .00001087  00000-0  76591-4 0  1032
2 31289 097.6398 029.5623 0382583 120.4953 243.4713 14.62791671 55836
1 31290U 99025BNY 08065.19199885  .00000794  00000-0  41736-3 0  1041
2 31290 101.9463 195.9512 0147091 074.6684 287.0918 14.13081696 53248
1 31292U 99025BPA 08063.93853429 +.00000976 +00000-0 +69849-3 0 01030
2 31292 098.9903 049.2033 0063231 082.6561 278.1772 13.98556112049481
1 31295U 99025BPD 08064.83919393 +.00000102 +00000-0 +10087-3 0 01408
2 31295 098.3859 021.0681 0079163 032.3148 328.2897 13.95279215050489
1 31297U 99025BPF 08064.99458235  .00000056  00000-0  27378-4 0  1073
2 31297 099.0072 084.9628 0164566 160.9857 199.7546 14.45308991 53926
1 31300U 99025BPJ 08064.51124432 +.00000256 +00000-0 +21315-3 0 01497
2 31300 099.6362 078.1676 0073946 127.7221 233.0451 13.97023183052136
1 31301U 99025BPK 08064.82252663 +.00011324 +00000-0 +98334-3 0 01684
2 31301 097.6134 025.6258 0334241 142.4901 219.9983 14.62751258050924
1 31301U 99025BPK 08065.84863964  .00008383  00000-0  73053-3 0  1670
2 31301 097.6117 026.5769 0333929 139.2330 223.3740 14.62757305 51070
1 31303U 99025BPM 08064.93025194 -.00000012  00000-0  18028-4 0  1232
2 31303 098.8255 050.0856 0012418 073.4812 286.7712 14.09104220 48811
1 31303U 99025BPM 08064.93025194 -.00000012 +00000-0 +18028-4 0 01254
2 31303 098.8255 050.0856 0012418 073.4812 286.7712 14.09104220048811
1 31304U 07015A   08064.82891497 +.00000866 +00000-0 +91419-4 0 03194
2 31304 097.7931 164.3463 0011446 342.7372 017.3454 14.91805746046818
1 31304U 07015A   08065.23135959  .00000946  00000-0  99350-4 0  2947
2 31304 097.7931 164.7443 0011479 341.3396 018.7401 14.91806841 46877
1 31305U 07015B   08064.48047142 -.00000241 +00000-0 -17930-4 0 02810
2 31305 097.8017 164.7425 0013948 354.7822 005.3252 14.92433585046787
1 31305U 07015B   08064.94979294 -.00000217  00000-0 -15566-4 0  2796
2 31305 097.8021 165.2079 0013859 353.3886 006.7173 14.92433687 46857
1 31307U 07016B   08064.14203604 -.00000252 +00000-0 +10000-3 0 01633
2 31307 000.0211 101.2581 0002659 251.9466 146.2149 01.00271513003104
1 31307U 07016B   08065.13359216 -.00000253  00000-0  10000-3 0  1635
2 31307 000.0230 102.1214 0002642 250.8919 144.3419 01.00271146  3113
